{"type": "FeatureCollection", "features": [{"type": "Feature", "properties": {"norad_id": 66315, "name": "SENTINEL-1D", "group": "last-30-days", "lat": 45.412228764471195, "lon": 172.20126525190167, "alt_km": 687.7377161752402, "timestamp": "2025-12-04T15:47:52.867103+00:00", "meta": {"OBJECT_NAME": "SENTINEL-1D", "OBJECT_ID": "2025-251A", "EPOCH": "2025-12-03T14:30:47.068416", "MEAN_MOTION": 14.5991103, "ECCENTRICITY": 0.00026458, "INCLINATION": 98.1924, "RA_OF_ASC_NODE": 342.7567, "ARG_OF_PERICENTER": 152.8376, "MEAN_ANOMALY": 207.2963, "EPHEMERIS_TYPE": 0, "CLASSIFICATION_TYPE": "U", "NORAD_CAT_ID": 66315, "ELEMENT_SET_NO": 999, "REV_AT_EPOCH": 420, "BSTAR": 8.0054337e-05, "MEAN_MOTION_DOT": 3.37e-06, "MEAN_MOTION_DDOT": 0}, "tle": {"line1": "1 66315U 25251A   25337.60471144  .00000337  00000+0  80054-4 0  9996", "line2": "2 66315  98.1924 342.7567 0002645 152.8376 207.2963 14.59911030  4207"}}, "geometry": {"type": "Point", "coordinates": [172.20126525190167, 45.412228764471195]}}, {"type": "Feature", "properties": {"norad_id": 66316, "name": "QPS-SAR-14 (YACHIHOKO-I)", "group": "last-30-days", "lat": -28.1616056051774, "lon": 83.19081222599495, "alt_km": 580.5299332189443, "timestamp": "2025-12-04T15:47:52.867161+00:00", "meta": {"OBJECT_NAME": "QPS-SAR-14 (YACHIHOKO-I)", "OBJECT_ID": "2025-252A", "EPOCH": "2025-12-04T03:11:32.570304", "MEAN_MOTION": 14.97560514, "ECCENTRICITY": 0.00068288, "INCLINATION": 42.0034, "RA_OF_ASC_NODE": 122.5741, "ARG_OF_PERICENTER": 91.9223, "MEAN_ANOMALY": 268.2384, "EPHEMERIS_TYPE": 0, "CLASSIFICATION_TYPE": "U", "NORAD_CAT_ID": 66316, "ELEMENT_SET_NO": 999, "REV_AT_EPOCH": 424, "BSTAR": 0.0010610944, "MEAN_MOTION_DOT": 0.00012436, "MEAN_MOTION_DDOT": 0}, "tle": {"line1": "1 66316U 25252A   25338.13301586  .00012436  00000+0  10611-2 0  9992", "line2": "2 66316  42.0034 122.5741 0006828  91.9223 268.2384 14.97560514  4244"}}, "geometry": {"type": "Point", "coordinates": [83.19081222599495, -28.1616056051774]}}, {"type": "Feature", "properties": {"norad_id": 66317, "name": "ELECTRON R/B", "group": "last-30-days", "lat": -41.96390345973613, "lon": 9.018814241135702, "alt_km": 272.1131238411908, "timestamp": "2025-12-04T15:47:52.867179+00:00", "meta": {"OBJECT_NAME": "ELECTRON R/B", "OBJECT_ID": "2025-252B", "EPOCH": "2025-12-03T17:54:17.702208", "MEAN_MOTION": 16.11372677, "ECCENTRICITY": 0.00810811, "INCLINATION": 41.986, "RA_OF_ASC_NODE": 105.3311, "ARG_OF_PERICENTER": 73.5218, "MEAN_ANOMALY": 287.4538, "EPHEMERIS_TYPE": 0, "CLASSIFICATION_TYPE": "U", "NORAD_CAT_ID": 66317, "ELEMENT_SET_NO": 999, "REV_AT_EPOCH": 440, "BSTAR": 0.0017947301, "MEAN_MOTION_DOT": 0.03381088, "MEAN_MOTION_DDOT": 8.186283e-06}, "tle": {"line1": "1 66317U 25252B   25337.74603822  .03381088  81863-5  17947-2 0  9993", "line2": "2 66317  41.9860 105.3311 0081081  73.5218 287.4538 16.11372677  4407"}}, "geometry": {"type": "Point", "coordinates": [9.018814241135702, -41.96390345973613]}}, {"type": "Feature", "properties": {"norad_id": 66319, "name": "STARLINK-35442", "group": "last-30-days", "lat": -11.471312944156107, "lon": 19.868920911004363, "alt_km": 445.2362505552055, "timestamp": "2025-12-04T15:47:52.867193+00:00", "meta": {"OBJECT_NAME": "STARLINK-35442", "OBJECT_ID": "2025-253A", "EPOCH": "2025-12-04T00:00:02.000160", "MEAN_MOTION": 15.40760986, "ECCENTRICITY": 0.00016164, "INCLINATION": 43.0012, "RA_OF_ASC_NODE": 36.2403, "ARG_OF_PERICENTER": 263.9906, "MEAN_ANOMALY": 23.9749, "EPHEMERIS_TYPE": 0, "CLASSIFICATION_TYPE": "U", "NORAD_CAT_ID": 66319, "ELEMENT_SET_NO": 999, "REV_AT_EPOCH": 562, "BSTAR": -0.0033150496, "MEAN_MOTION_DOT": -0.0013661, "MEAN_MOTION_DDOT": 0}, "tle": {"line1": "1 66319U 25253A   25338.00002315 -.00136610  00000+0 -33150-2 0  9996", "line2": "2 66319  43.0012  36.2403 0001616 263.9906  23.9749 15.40760986  5627"}}, "geometry": {"type": "Point", "coordinates": [19.868920911004363, -11.471312944156107]}}, {"type": "Feature", "properties": {"norad_id": 66320, "name": "STARLINK-34616", "group": "last-30-days", "lat": 14.439354049347402, "lon": -164.0196690223657, "alt_km": 420.5284001148184, "timestamp": "2025-12-04T15:47:52.867240+00:00", "meta": {"OBJECT_NAME": "STARLINK-34616", "OBJECT_ID": "2025-253B", "EPOCH": "2025-12-03T20:32:36.860352", "MEAN_MOTION": 15.4882756, "ECCENTRICITY": 0.000321, "INCLINATION": 43.0001, "RA_OF_ASC_NODE": 36.7018, "ARG_OF_PERICENTER": 337.973, "MEAN_ANOMALY": 22.0991, "EPHEMERIS_TYPE": 0, "CLASSIFICATION_TYPE": "U", "NORAD_CAT_ID": 66320, "ELEMENT_SET_NO": 999, "REV_AT_EPOCH": 563, "BSTAR": -0.0018285587, "MEAN_MOTION_DOT": -0.00099902, "MEAN_MOTION_DDOT": 0}, "tle": {"line1": "1 66320U 25253B   25337.85598218 -.00099902  00000+0 -18286-2 0  9997", "line2": "2 66320  43.0001  36.7018 0003210 337.9730  22.0991 15.48827560  5633"}}, "geometry": {"type": "Point", "coordinates": [-164.0196690223657, 14.439354049347402]}}, {"type": "Feature", "properties": {"norad_id": 66321, "name": "STARLINK-34615", "group": "last-30-days", "lat": 28.975281377131438, "lon": 174.7411840436378, "alt_km": 411.26330790520205, "timestamp": "2025-12-04T15:47:52.867255+00:00", "meta": {"OBJECT_NAME": "STARLINK-34615", "OBJECT_ID": "2025-253C", "EPOCH": "2025-12-04T08:00:01.999872", "MEAN_MOTION": 15.5169483, "ECCENTRICITY": 0.0001517, "INCLINATION": 43, "RA_OF_ASC_NODE": 33.1024, "ARG_OF_PERICENTER": 277.9146, "MEAN_ANOMALY": 200.3228, "EPHEMERIS_TYPE": 0, "CLASSIFICATION_TYPE": "U", "NORAD_CAT_ID": 66321, "ELEMENT_SET_NO": 999, "REV_AT_EPOCH": 562, "BSTAR": -0.0277086, "MEAN_MOTION_DOT": -0.01529676, "MEAN_MOTION_DDOT": 0}, "tle": {"line1": "1 66321U 25253C   25338.33335648 -.01529676  00000+0 -27709-1 0  9994", "line2": "2 66321  43.0000  33.1024 0001517 277.9146 200.3228 15.51694830  5622"}}, "geometry": {"type": "Point", "coordinates": [174.7411840436378, 28.975281377131438]}}, {"type": "Feature", "properties": {"norad_id": 66322, "name": "STARLINK-35292", "group": "last-30-days", "lat": 13.785025950033898, "lon": 47.622738618467984, "alt_km": 442.31624660237594, "timestamp": "2025-12-04T15:47:52.867267+00:00", "meta": {"OBJECT_NAME": "STARLINK-35292", "OBJECT_ID": "2025-253D", "EPOCH": "2025-12-04T08:00:01.999872", "MEAN_MOTION": 15.40868781, "ECCENTRICITY": 0.00010704, "INCLINATION": 43.0005, "RA_OF_ASC_NODE": 34.2306, "ARG_OF_PERICENTER": 255.9816, "MEAN_ANOMALY": 120.2822, "EPHEMERIS_TYPE": 0, "CLASSIFICATION_TYPE": "U", "NORAD_CAT_ID": 66322, "ELEMENT_SET_NO": 999, "REV_AT_EPOCH": 557, "BSTAR": -0.0069342139, "MEAN_MOTION_DOT": -0.00281116, "MEAN_MOTION_DDOT": 0}, "tle": {"line1": "1 66322U 25253D   25338.33335648 -.00281116  00000+0 -69342-2 0  9998", "line2": "2 66322  43.0005  34.2306 0001070 255.9816 120.2822 15.40868781  5577"}}, "geometry": {"type": "Point", "coordinates": [47.622738618467984, 13.785025950033898]}}, {"type": "Feature", "properties": {"norad_id": 66323, "name": "STARLINK-35309", "group": "last-30-days", "lat": -1.5897984399508205, "lon": -146.33281624648293, "alt_km": 414.3158783966328, "timestamp": "2025-12-04T15:47:52.867278+00:00", "meta": {"OBJECT_NAME": "STARLINK-35309", "OBJECT_ID": "2025-253E", "EPOCH": "2025-12-03T12:44:13.575552", "MEAN_MOTION": 15.5062735, "ECCENTRICITY": 0.00017369, "INCLINATION": 42.9999, "RA_OF_ASC_NODE": 38.5588, "ARG_OF_PERICENTER": 269.0685, "MEAN_ANOMALY": 90.9976, "EPHEMERIS_TYPE": 0, "CLASSIFICATION_TYPE": "U", "NORAD_CAT_ID": 66323, "ELEMENT_SET_NO": 999, "REV_AT_EPOCH": 550, "BSTAR": 0.0016514731, "MEAN_MOTION_DOT": 0.00097932, "MEAN_MOTION_DDOT": 0}, "tle": {"line1": "1 66323U 25253E   25337.53071268  .00097932  00000+0  16515-2 0  9998", "line2": "2 66323  42.9999  38.5588 0001736 269.0685  90.9976 15.50627350  5508"}}, "geometry": {"type": "Point", "coordinates": [-146.33281624648293, -1.5897984399508205]}}, {"type": "Feature", "properties": {"norad_id": 66324, "name": "STARLINK-35506", "group": "last-30-days", "lat": 3.959994821203151, "lon": -152.28012823768336, "alt_km": 414.2663484542909, "timestamp": "2025-12-04T15:47:52.867289+00:00", "meta": {"OBJECT_NAME": "STARLINK-35506", "OBJECT_ID": "2025-253F", "EPOCH": "2025-12-03T12:46:12.432576", "MEAN_MOTION": 15.5059009, "ECCENTRICITY": 8.705e-05, "INCLINATION": 43.0006, "RA_OF_ASC_NODE": 38.5692, "ARG_OF_PERICENTER": 276.2742, "MEAN_ANOMALY": 83.8019, "EPHEMERIS_TYPE": 0, "CLASSIFICATION_TYPE": "U", "NORAD_CAT_ID": 66324, "ELEMENT_SET_NO": 999, "REV_AT_EPOCH": 550, "BSTAR": 0.00045167229, "MEAN_MOTION_DOT": 0.00026255, "MEAN_MOTION_DDOT": 0}, "tle": {"line1": "1 66324U 25253F   25337.53208834  .00026255  00000+0  45167-3 0  9996", "line2": "2 66324  43.0006  38.5692 0000870 276.2742  83.8019 15.50590090  5507"}}, "geometry": {"type": "Point", "coordinates": [-152.28012823768336, 3.959994821203151]}}, {"type": "Feature", "properties": {"norad_id": 66325, "name": "STARLINK-35504", "group": "last-30-days", "lat": 40.54029091249159, "lon": 145.5357527284743, "alt_km": 438.4239117222305, "timestamp": "2025-12-04T15:47:52.867303+00:00", "meta": {"OBJECT_NAME": "STARLINK-35504", "OBJECT_ID": "2025-253G", "EPOCH": "2025-12-04T08:00:01.999872", "MEAN_MOTION": 15.40702268, "ECCENTRICITY": 0.00010674, "INCLINATION": 43.0005, "RA_OF_ASC_NODE": 34.0191, "ARG_OF_PERICENTER": 266.4653, "MEAN_ANOMALY": 196.9248, "EPHEMERIS_TYPE": 0, "CLASSIFICATION_TYPE": "U", "NORAD_CAT_ID": 66325, "ELEMENT_SET_NO": 999, "REV_AT_EPOCH": 557, "BSTAR": -0.0017776701, "MEAN_MOTION_DOT": -0.0007385, "MEAN_MOTION_DDOT": 0}, "tle": {"line1": "1 66325U 25253G   25338.33335648 -.00073850  00000+0 -17777-2 0  9990", "line2": "2 66325  43.0005  34.0191 0001067 266.4653 196.9248 15.40702268  5571"}}, "geometry": {"type": "Point", "coordinates": [145.5357527284743, 40.54029091249159]}}]}